ONEWEB-0045             
1 45151U 20008W   25111.47137869 -.00000562  00000+0 -16213-2 0  9990
2 45151  87.8800 105.0958 0002063  84.5133 275.6230 13.11415674255136
ONEWEB-0047             
1 45152U 20008X   25112.11386367 -.00000441  00000+0 -13005-2 0  9994
2 45152  87.8785 120.2222 0001985  86.2230 273.9124 13.10371116253841
ONEWEB-0048             
1 45153U 20008Y   25111.49802377 -.00000288  00000+0 -86100-3 0  9995
2 45153  87.8790 120.3665 0002071  90.5405 269.5960 13.10370023252584
ONEWEB-0049             
1 45154U 20008Z   25111.50052329 -.00000430  00000+0 -12688-2 0  9990
2 45154  87.8785 120.3594 0002403 102.5859 257.5537 13.10372398252805
ONEWEB-0051             
1 45155U 20008AA  25111.46968050 -.00000706  00000+0 -20284-2 0  9990
2 45155  87.8786 105.1412 0001883  88.4295 271.7048 13.11415724255815
ONEWEB-0052             
1 45156U 20008AB  25111.49552916 -.00000156  00000+0 -48215-3 0  9998
2 45156  87.8782 120.3062 0002513  98.1785 261.9627 13.10368653252712
ONEWEB-0053             
1 45157U 20008AC  25111.47812173  .00000643  00000+0  18064-2 0  9998
2 45157  87.8792 120.3699 0002144  84.9975 275.1397 13.10371567252689
ONEWEB-0054             
1 45158U 20008AD  25111.51295763 -.00000699  00000+0 -20385-2 0  9996
2 45158  87.8794 120.3377 0002024  89.8396 270.2963 13.10373080252804
